{
  "links" : {
    "next" : "https://api.nasa.gov/neo/rest/v1/feed?start_date=2004-05-09&end_date=2004-05-09&detailed=true&api_key=t0TVs3DtDT2H8Oy2Zy8m2eVrNsAVKAexjcZXUckd",
    "prev" : "https://api.nasa.gov/neo/rest/v1/feed?start_date=2004-05-07&end_date=2004-05-07&detailed=true&api_key=t0TVs3DtDT2H8Oy2Zy8m2eVrNsAVKAexjcZXUckd",
    "self" : "https://api.nasa.gov/neo/rest/v1/feed?start_date=2004-05-08&end_date=2004-05-08&detailed=true&api_key=t0TVs3DtDT2H8Oy2Zy8m2eVrNsAVKAexjcZXUckd"
  },
  "element_count" : 5,
  "near_earth_objects" : {
    "2004-05-08" : [ {
      "links" : {
        "self" : "https://api.nasa.gov/neo/rest/v1/neo/3523944?api_key=t0TVs3DtDT2H8Oy2Zy8m2eVrNsAVKAexjcZXUckd"
      },
      "neo_reference_id" : "3523944",
      "name" : "(2010 KP10)",
      "nasa_jpl_url" : "http://ssd.jpl.nasa.gov/sbdb.cgi?sstr=3523944",
      "absolute_magnitude_h" : 23.4,
      "estimated_diameter" : {
        "kilometers" : {
          "estimated_diameter_min" : 0.0555334912,
          "estimated_diameter_max" : 0.1241766613
        },
        "meters" : {
          "estimated_diameter_min" : 55.5334911581,
          "estimated_diameter_max" : 124.1766612574
        },
        "miles" : {
          "estimated_diameter_min" : 0.0345069009,
          "estimated_diameter_max" : 0.0771597762
        },
        "feet" : {
          "estimated_diameter_min" : 182.1964991311,
          "estimated_diameter_max" : 407.4037573197
        }
      },
      "is_potentially_hazardous_asteroid" : false,
      "close_approach_data" : [ {
        "close_approach_date" : "2004-05-08",
        "epoch_date_close_approach" : 1083999600000,
        "relative_velocity" : {
          "kilometers_per_second" : "8.4357440136",
          "kilometers_per_hour" : "30368.6784491189",
          "miles_per_hour" : "18869.9157841206"
        },
        "miss_distance" : {
          "astronomical" : "0.1085750395",
          "lunar" : "42.2356910706",
          "kilometers" : "16242595",
          "miles" : "10092680"
        },
        "orbiting_body" : "Earth"
      } ],
      "orbital_data" : {
        "orbit_id" : "40",
        "orbit_determination_date" : "2017-04-06 08:57:26",
        "orbit_uncertainty" : "0",
        "minimum_orbit_intersection" : ".0617594",
        "jupiter_tisserand_invariant" : "5.483",
        "epoch_osculation" : "2458000.5",
        "eccentricity" : ".1660580434151698",
        "semi_major_axis" : "1.131177801202231",
        "inclination" : "16.19504100362216",
        "ascending_node_longitude" : "233.3382121348257",
        "orbital_period" : "439.4350940254797",
        "perihelion_distance" : ".9433366287799145",
        "perihelion_argument" : "276.3579209698439",
        "aphelion_distance" : "1.319018973624547",
        "perihelion_time" : "2457885.840414231159",
        "mean_anomaly" : "93.93298677776819",
        "mean_motion" : ".8192336135518712",
        "equinox" : "J2000"
      }
    }, {
      "links" : {
        "self" : "https://api.nasa.gov/neo/rest/v1/neo/3661493?api_key=t0TVs3DtDT2H8Oy2Zy8m2eVrNsAVKAexjcZXUckd"
      },
      "neo_reference_id" : "3661493",
      "name" : "(2014 CD13)",
      "nasa_jpl_url" : "http://ssd.jpl.nasa.gov/sbdb.cgi?sstr=3661493",
      "absolute_magnitude_h" : 21.3,
      "estimated_diameter" : {
        "kilometers" : {
          "estimated_diameter_min" : 0.1460679643,
          "estimated_diameter_max" : 0.3266178974
        },
        "meters" : {
          "estimated_diameter_min" : 146.0679642714,
          "estimated_diameter_max" : 326.6178974458
        },
        "miles" : {
          "estimated_diameter_min" : 0.090762397,
          "estimated_diameter_max" : 0.2029508896
        },
        "feet" : {
          "estimated_diameter_min" : 479.2256199,
          "estimated_diameter_max" : 1071.581062656
        }
      },
      "is_potentially_hazardous_asteroid" : true,
      "close_approach_data" : [ {
        "close_approach_date" : "2004-05-08",
        "epoch_date_close_approach" : 1083999600000,
        "relative_velocity" : {
          "kilometers_per_second" : "21.2347626229",
          "kilometers_per_hour" : "76445.1454425239",
          "miles_per_hour" : "47500.0405112171"
        },
        "miss_distance" : {
          "astronomical" : "0.4381600742",
          "lunar" : "170.4442596436",
          "kilometers" : "65547812",
          "miles" : "40729524"
        },
        "orbiting_body" : "Earth"
      } ],
      "orbital_data" : {
        "orbit_id" : "20",
        "orbit_determination_date" : "2017-09-26 06:50:10",
        "orbit_uncertainty" : "0",
        "minimum_orbit_intersection" : ".0220841",
        "jupiter_tisserand_invariant" : "3.202",
        "epoch_osculation" : "2458000.5",
        "eccentricity" : ".7566042791455546",
        "semi_major_axis" : "2.207860757498871",
        "inclination" : "6.88479271209259",
        "ascending_node_longitude" : "332.4316092404369",
        "orbital_period" : "1198.273479399466",
        "perihelion_distance" : ".5373838606176795",
        "perihelion_argument" : "284.3482900119051",
        "aphelion_distance" : "3.878337654380062",
        "perihelion_time" : "2457959.819040043525",
        "mean_anomaly" : "12.22187241569475",
        "mean_motion" : ".3004322520602056",
        "equinox" : "J2000"
      }
    } ]
  }
}